{"type": "FeatureCollection", "features": [ {"type": "Feature", "properties": {"norad_id": 35475, "name": "COSMOS 2251 DEB", "group": "cosmos-2251-debris", "lat": -64.86208412383739, "lon": 105.67473954449643, "alt_km": 664.1246864727982, "timestamp": "2025-12-24T05:51:20.005662+00:00", "meta": {"OBJECT_NAME": "COSMOS 2251 DEB", "OBJECT_ID": "1993-036ALV", "EPOCH": "2025-12-22T16:36:26.868096", "MEAN_MOTION": 14.69928525, "ECCENTRICITY": 0.00201226, "INCLINATION": 74.022, "RA_OF_ASC_NODE": 146.318, "ARG_OF_PERICENTER": 219.0346, "MEAN_ANOMALY": 140.9374, "EPHEMERIS_TYPE": 0, "CLASSIFICATION_TYPE": "U", "NORAD_CAT_ID": 35475, "ELEMENT_SET_NO": 999, "REV_AT_EPOCH": 65763, "BSTAR": 0.0020453199, "MEAN_MOTION_DOT": 0.00012275, "MEAN_MOTION_DDOT": 0}, "tle": {"line1": "1 35475U 93036ALV 25356.69197764  .00012275  00000+0  20453-2 0  9997", "line2": "2 35475  74.0220 146.3180 0020122 219.0346 140.9374 14.69928525657632"}}, "geometry": {"type": "Point", "coordinates": [105.67473954449643, -64.86208412383739]}}, {"type": "Feature", "properties": {"norad_id": 35476, "name": "COSMOS 2251 DEB", "group": "cosmos-2251-debris", "lat": 20.57331534438915, "lon": 44.51638447079669, "alt_km": 629.1298019977903, "timestamp": "2025-12-24T05:51:20.005672+00:00", "meta": {"OBJECT_NAME": "COSMOS 2251 DEB", "OBJECT_ID": "1993-036ALW", "EPOCH": "2025-12-23T21:55:12.926784", "MEAN_MOTION": 14.75892475, "ECCENTRICITY": 0.00183582, "INCLINATION": 73.9775, "RA_OF_ASC_NODE": 38.9735, "ARG_OF_PERICENTER": 15.7826, "MEAN_ANOMALY": 49.7231, "EPHEMERIS_TYPE": 0, "CLASSIFICATION_TYPE": "U", "NORAD_CAT_ID": 35476, "ELEMENT_SET_NO": 999, "REV_AT_EPOCH": 88052, "BSTAR": 0.0015560292, "MEAN_MOTION_DOT": 0.00010701, "MEAN_MOTION_DDOT": 0}, "tle": {"line1": "1 35476U 93036ALW 25357.91334406  .00010701  00000+0  15560-2 0  9995", "line2": "2 35476  73.9775  38.9735 0018358  15.7826  49.7231 14.75892475880525"}}, "geometry": {"type": "Point", "coordinates": [44.51638447079669, 20.57331534438915]}}, {"type": "Feature", "properties": {"norad_id": 35580, "name": "COSMOS 2251 DEB", "group": "cosmos-2251-debris", "lat": -70.17037789600373, "lon": 105.9449693442612, "alt_km": 1054.0298244227133, "timestamp": "2025-12-24T05:51:20.005682+00:00", "meta": {"OBJECT_NAME": "COSMOS 2251 DEB", "OBJECT_ID": "1993-036ALX", "EPOCH": "2025-12-22T19:33:13.925664", "MEAN_MOTION": 13.83921158, "ECCENTRICITY": 0.0280776, "INCLINATION": 73.9007, "RA_OF_ASC_NODE": 161.5885, "ARG_OF_PERICENTER": 164.8747, "MEAN_ANOMALY": 196.0996, "EPHEMERIS_TYPE": 0, "CLASSIFICATION_TYPE": "U", "NORAD_CAT_ID": 35580, "ELEMENT_SET_NO": 999, "REV_AT_EPOCH": 62396, "BSTAR": 0.0019852622, "MEAN_MOTION_DOT": 2.966e-05, "MEAN_MOTION_DDOT": 0}, "tle": {"line1": "1 35580U 93036ALX 25356.81474451  .00002966  00000+0  19853-2 0  9997", "line2": "2 35580  73.9007 161.5885 0280776 164.8747 196.0996 13.83921158623967"}}, "geometry": {"type": "Point", "coordinates": [105.9449693442612, -70.17037789600373]}}, {"type": "Feature", "properties": {"norad_id": 35583, "name": "COSMOS 2251 DEB", "group": "cosmos-2251-debris", "lat": -51.75157749320259, "lon": 34.840269012812854, "alt_km": 787.7616869294579, "timestamp": "2025-12-24T05:51:20.005692+00:00", "meta": {"OBJECT_NAME": "COSMOS 2251 DEB", "OBJECT_ID": "1993-036AMA", "EPOCH": "2025-12-23T19:50:15.801792", "MEAN_MOTION": 13.55354425, "ECCENTRICITY": 0.03849784, "INCLINATION": 73.9157, "RA_OF_ASC_NODE": 194.0477, "ARG_OF_PERICENTER": 216.3569, "MEAN_ANOMALY": 141.0826, "EPHEMERIS_TYPE": 0, "CLASSIFICATION_TYPE": "U", "NORAD_CAT_ID": 35583, "ELEMENT_SET_NO": 999, "REV_AT_EPOCH": 82562, "BSTAR": 0.00078625408, "MEAN_MOTION_DOT": 8.53e-06, "MEAN_MOTION_DDOT": 0}, "tle": {"line1": "1 35583U 93036AMA 25357.82657178  .00000853  00000+0  78625-3 0  9997", "line2": "2 35583  73.9157 194.0477 0384978 216.3569 141.0826 13.55354425825623"}}, "geometry": {"type": "Point", "coordinates": [34.840269012812854, -51.75157749320259]}}, {"type": "Feature", "properties": {"norad_id": 35585, "name": "COSMOS 2251 DEB", "group": "cosmos-2251-debris", "lat": -60.626318369486214, "lon": -61.5053079862135, "alt_km": 854.377709844518, "timestamp": "2025-12-24T05:51:20.005702+00:00", "meta": {"OBJECT_NAME": "COSMOS 2251 DEB", "OBJECT_ID": "1993-036AMC", "EPOCH": "2025-12-21T09:07:18.442848", "MEAN_MOTION": 13.75269672, "ECCENTRICITY": 0.03103986, "INCLINATION": 73.9717, "RA_OF_ASC_NODE": 333.9847, "ARG_OF_PERICENTER": 244.5384, "MEAN_ANOMALY": 273.7703, "EPHEMERIS_TYPE": 0, "CLASSIFICATION_TYPE": "U", "NORAD_CAT_ID": 35585, "ELEMENT_SET_NO": 999, "REV_AT_EPOCH": 64182, "BSTAR": 0.00073727274, "MEAN_MOTION_DOT": 9.8e-06, "MEAN_MOTION_DDOT": 0}, "tle": {"line1": "1 35585U 93036AMC 25355.38007457  .00000980  00000+0  73727-3 0  9996", "line2": "2 35585  73.9717 333.9847 0310398 244.5384 273.7703 13.75269672641821"}}, "geometry": {"type": "Point", "coordinates": [-61.5053079862135, -60.626318369486214]}}, {"type": "Feature", "properties": {"norad_id": 35586, "name": "COSMOS 2251 DEB", "group": "cosmos-2251-debris", "lat": -61.67958601543785, "lon": 136.17017383616712, "alt_km": 1055.781230725549, "timestamp": "2025-12-24T05:51:20.005712+00:00", "meta": {"OBJECT_NAME": "COSMOS 2251 DEB", "OBJECT_ID": "1993-036AMD", "EPOCH": "2025-12-23T04:09:08.280864", "MEAN_MOTION": 13.52091848, "ECCENTRICITY": 0.04042541, "INCLINATION": 74.0191, "RA_OF_ASC_NODE": 285.7624, "ARG_OF_PERICENTER": 158.8543, "MEAN_ANOMALY": 271.7414, "EPHEMERIS_TYPE": 0, "CLASSIFICATION_TYPE": "U", "NORAD_CAT_ID": 35586, "ELEMENT_SET_NO": 999, "REV_AT_EPOCH": 60523, "BSTAR": 0.000355474, "MEAN_MOTION_DOT": 3.71e-06, "MEAN_MOTION_DDOT": 0}, "tle": {"line1": "1 35586U 93036AMD 25357.17301251  .00000371  00000+0  35547-3 0  9997", "line2": "2 35586  74.0191 285.7624 0404254 158.8543 271.7414 13.52091848605231"}}, "geometry": {"type": "Point", "coordinates": [136.17017383616712, -61.67958601543785]}}, {"type": "Feature", "properties": {"norad_id": 35587, "name": "COSMOS 2251 DEB", "group": "cosmos-2251-debris", "lat": 12.62388876292511, "lon": 39.70433506825476, "alt_km": 720.4701509964061, "timestamp": "2025-12-24T05:51:20.005722+00:00", "meta": {"OBJECT_NAME": "COSMOS 2251 DEB", "OBJECT_ID": "1993-036AME", "EPOCH": "2025-12-21T20:41:18.597984", "MEAN_MOTION": 14.71550847, "ECCENTRICITY": 0.01023219, "INCLINATION": 74.0051, "RA_OF_ASC_NODE": 40.6582, "ARG_OF_PERICENTER": 226.293, "MEAN_ANOMALY": 132.9734, "EPHEMERIS_TYPE": 0, "CLASSIFICATION_TYPE": "U", "NORAD_CAT_ID": 35587, "ELEMENT_SET_NO": 999, "REV_AT_EPOCH": 66480, "BSTAR": 0.00023978572, "MEAN_MOTION_DOT": 1.58e-05, "MEAN_MOTION_DDOT": 0}, "tle": {"line1": "1 35587U 93036AME 25355.86202081  .00001580  00000+0  23979-3 0  9992", "line2": "2 35587  74.0051  40.6582 0102321 226.2930 132.9734 14.71550847664800"}}, "geometry": {"type": "Point", "coordinates": [39.70433506825476, 12.62388876292511]}}, {"type": "Feature", "properties": {"norad_id": 35593, "name": "COSMOS 2251 DEB", "group": "cosmos-2251-debris", "lat": 42.83856648020295, "lon": -76.91602502162897, "alt_km": 853.9550320632698, "timestamp": "2025-12-24T05:51:20.005732+00:00", "meta": {"OBJECT_NAME": "COSMOS 2251 DEB", "OBJECT_ID": "1993-036AML", "EPOCH": "2025-12-22T03:07:10.854336", "MEAN_MOTION": 14.25629866, "ECCENTRICITY": 0.01050344, "INCLINATION": 74.0862, "RA_OF_ASC_NODE": 271.5473, "ARG_OF_PERICENTER": 275.9355, "MEAN_ANOMALY": 82.9829, "EPHEMERIS_TYPE": 0, "CLASSIFICATION_TYPE": "U", "NORAD_CAT_ID": 35593, "ELEMENT_SET_NO": 999, "REV_AT_EPOCH": 85199, "BSTAR": 0.00065796608, "MEAN_MOTION_DOT": 1.626e-05, "MEAN_MOTION_DDOT": 0}, "tle": {"line1": "1 35593U 93036AML 25356.12998674  .00001626  00000+0  65797-3 0  9994", "line2": "2 35593  74.0862 271.5473 0105034 275.9355  82.9829 14.25629866851991"}}, "geometry": {"type": "Point", "coordinates": [-76.91602502162897, 42.83856648020295]}}, {"type": "Feature", "properties": {"norad_id": 35594, "name": "COSMOS 2251 DEB", "group": "cosmos-2251-debris", "lat": 49.68253469438593, "lon": 103.29515273294373, "alt_km": 614.7378132786225, "timestamp": "2025-12-24T05:51:20.005742+00:00", "meta": {"OBJECT_NAME": "COSMOS 2251 DEB", "OBJECT_ID": "1993-036AMM", "EPOCH": "2025-12-21T13:05:05.165088", "MEAN_MOTION": 14.8817141, "ECCENTRICITY": 0.0029279, "INCLINATION": 73.8068, "RA_OF_ASC_NODE": 88.7269, "ARG_OF_PERICENTER": 201.0189, "MEAN_ANOMALY": 158.9789, "EPHEMERIS_TYPE": 0, "CLASSIFICATION_TYPE": "U", "NORAD_CAT_ID": 35594, "ELEMENT_SET_NO": 999, "REV_AT_EPOCH": 88316, "BSTAR": 0.0013268, "MEAN_MOTION_DOT": 0.00012311, "MEAN_MOTION_DDOT": 0}, "tle": {"line1": "1 35594U 93036AMM 25355.54519867  .00012311  00000+0  13268-2 0  9991", "line2": "2 35594  73.8068  88.7269 0029279 201.0189 158.9789 14.88171410883168"}}, "geometry": {"type": "Point", "coordinates": [103.29515273294373, 49.68253469438593]}}, {"type": "Feature", "properties": {"norad_id": 35602, "name": "COSMOS 2251 DEB", "group": "cosmos-2251-debris", "lat": -41.65757801505779, "lon": 142.66592398104774, "alt_km": 471.21152196470393, "timestamp": "2025-12-24T05:51:20.005753+00:00", "meta": {"OBJECT_NAME": "COSMOS 2251 DEB", "OBJECT_ID": "1993-036AMV", "EPOCH": "2025-12-21T22:26:51.012096", "MEAN_MOTION": 15.35414257, "ECCENTRICITY": 0.00887347, "INCLINATION": 73.9929, "RA_OF_ASC_NODE": 162.4295, "ARG_OF_PERICENTER": 226.1697, "MEAN_ANOMALY": 293.1785, "EPHEMERIS_TYPE": 0, "CLASSIFICATION_TYPE": "U", "NORAD_CAT_ID": 35602, "ELEMENT_SET_NO": 999, "REV_AT_EPOCH": 90232, "BSTAR": 0.00057034705, "MEAN_MOTION_DOT": 0.00022374, "MEAN_MOTION_DDOT": 0}, "tle": {"line1": "1 35602U 93036AMV 25355.93531264  .00022374  00000+0  57035-3 0  9990", "line2": "2 35602  73.9929 162.4295 0088734 226.1697 293.1785 15.35414257902327"}}, "geometry": {"type": "Point", "coordinates": [142.66592398104774, -41.65757801505779]}}]}